COSMOS 2251 DEB         
1 34561U 93036UX  17345.78755800  .00001281  00000-0  31067-3 0  9992
2 34561  74.0335 142.5479 0044098 238.4825 121.2026 14.53427848462329
